STARLETTE               
1 07646U 75010A   22026.19509398 -.00000132  00000+0  83910-5 0  9994
2 07646  49.8250 311.6919 0205683 167.6886 192.9140 13.82310495372799
LAGEOS 1                
1 08820U 76039A   22025.86654043  .00000013  00000+0  00000+0 0  9992
2 08820 109.8586 350.1437 0045132 285.2706  10.8618  6.38664909810740
AJISAI (EGS)            
1 16908U 86061A   22026.54114323 -.00000105  00000+0 -55408-4 0  9993
2 16908  50.0112  35.4003 0011344  61.2525 115.9903 12.44495126281179
COSMOS 1989 (ETALON 1)  
1 19751U 89001C   22025.36899538  .00000009  00000+0  00000+0 0  9990
2 19751  64.2709 127.3087 0023591 212.6347 245.0045  2.13156164257188
COSMOS 2024 (ETALON 2)  
1 20026U 89039C   22025.62309466 -.00000033  00000+0  00000+0 0  9991
2 20026  65.5514   5.2226 0018405 219.3189 319.2938  2.13204174254309
LAGEOS 2                
1 22195U 92070B   22025.79815130 -.00000009  00000+0  00000+0 0  9990
2 22195  52.6358 199.9621 0137478 206.3969  32.7338  6.47294328691616
STELLA                  
1 22824U 93061B   22025.96261595 -.00000040  00000+0  29599-5 0  9994
2 22824  98.9738  43.1973 0006000 199.2224 223.7399 14.27387351476054
LARES                   
1 38077U 12006A   22026.47871134 -.00000053  00000+0 -89665-4 0  9998
2 38077  69.4937 149.8093 0007179 127.4680 232.7001 12.54930987456098
